[{"OBJECT_NAME":"STARLINK-32773","OBJECT_ID":"2025-006T","EPOCH":"2026-03-09T00:44:19.470624","MEAN_MOTION":15.27599857,"ECCENTRICITY":0.00024393,"INCLINATION":43.0026,"RA_OF_ASC_NODE":296.1473,"ARG_OF_PERICENTER":275.0117,"MEAN_ANOMALY":85.0457,"EPHEMERIS_TYPE":0,"CLASSIFICATION_TYPE":"U","NORAD_CAT_ID":62571,"ELEMENT_SET_NO":999,"REV_AT_EPOCH":6476,"BSTAR":0.0010783774,"MEAN_MOTION_DOT":0.00029551,"MEAN_MOTION_DDOT":0},{"OBJECT_NAME":"KUIPER-00209","OBJECT_ID":"2026-030N","EPOCH":"2026-03-09T14:49:43.575744","MEAN_MOTION":15.3016195,"ECCENTRICITY":0.0012191,"INCLINATION":51.8838,"RA_OF_ASC_NODE":220.0775,"ARG_OF_PERICENTER":59.1967,"MEAN_ANOMALY":301.0215,"EPHEMERIS_TYPE":0,"CLASSIFICATION_TYPE":"U","NORAD_CAT_ID":67776,"ELEMENT_SET_NO":999,"REV_AT_EPOCH":507,"BSTAR":0.0011963,"MEAN_MOTION_DOT":0.00035298,"MEAN_MOTION_DDOT":0}]
